{
    "bodies": [
        {
            "name": "TNO-922",
            "mass": 0,
            "semi_major_axis": 465.13671875,
            "eccentricity": 0.09003906249999998,
            "inclination": 0.39286952400848923,
            "longitude_of_ascending_node": 0.8585547752265578,
            "argument_of_perihelion": 1.05540159005389,
            "mean_anomaly": 1.6940820050229128
        },
        {
            "name": "TNO-923",
            "mass": 0,
            "semi_major_axis": 465.478515625,
            "eccentricity": 0.09013671874999998,
            "inclination": 0.3932956297829019,
            "longitude_of_ascending_node": 5.308827369571432,
            "argument_of_perihelion": 3.1686281359292017,
            "mean_anomaly": 3.9195168611810036
        },
        {
            "name": "TNO-924",
            "mass": 0,
            "semi_major_axis": 465.8203125,
            "eccentricity": 0.09023437499999998,
            "inclination": 0.39372173555731454,
            "longitude_of_ascending_node": 1.745792979330916,
            "argument_of_perihelion": 4.015146378300271,
            "mean_anomaly": 3.4820446135412197
        },
        {
            "name": "TNO-925",
            "mass": 0,
            "semi_major_axis": 466.162109375,
            "eccentricity": 0.09033203124999999,
            "inclination": 0.39414784133172726,
            "longitude_of_ascending_node": 4.511280422217056,
            "argument_of_perihelion": 5.625542915215007,
            "mean_anomaly": 2.9386179875160767
        },
        {
            "name": "TNO-926",
            "mass": 0,
            "semi_major_axis": 466.50390625,
            "eccentricity": 0.09042968749999998,
            "inclination": 0.3945739471061399,
            "longitude_of_ascending_node": 3.379702049929052,
            "argument_of_perihelion": 2.7306949386235724,
            "mean_anomaly": 4.129992744332514
        },
        {
            "name": "TNO-927",
            "mass": 0,
            "semi_major_axis": 466.845703125,
            "eccentricity": 0.09052734374999998,
            "inclination": 0.3950000528805526,
            "longitude_of_ascending_node": 4.133695501509562,
            "argument_of_perihelion": 1.7407612638263035,
            "mean_anomaly": 2.171522225578887
        },

        {
            "name": "TNO-928",
            "mass": 0,
            "semi_major_axis": 510.845703125,
            "eccentricity": 0.09052734374999998,
            "inclination": 0.03950000528805526,
            "longitude_of_ascending_node": 5.133695501509562,
            "argument_of_perihelion": 0.7407612638263035,
            "mean_anomaly": 5.171522225578887
        }
    ]
}